{
  "links" : {
    "next" : "https://api.nasa.gov/neo/rest/v1/neo/browse?page=1&size=20&api_key=DEMO_KEY",
    "self" : "https://api.nasa.gov/neo/rest/v1/neo/browse?page=0&size=20&api_key=DEMO_KEY"
  },
  "page" : {
    "size" : 20,
    "total_elements" : 17510,
    "total_pages" : 875,
    "number" : 0
  },
  "near_earth_objects" : [ {
    "links" : {
      "self" : "https://api.nasa.gov/neo/rest/v1/neo/2431394?api_key=DEMO_KEY"
    },
    "neo_reference_id" : "2431394",
    "name" : "431394 (2007 FS35)",
    "nasa_jpl_url" : "http://ssd.jpl.nasa.gov/sbdb.cgi?sstr=2431394",
    "absolute_magnitude_h" : 19.5,
    "estimated_diameter" : {
      "kilometers" : {
        "estimated_diameter_min" : 0.3346223745,
        "estimated_diameter_max" : 0.7482383761
      },
      "meters" : {
        "estimated_diameter_min" : 334.6223744549,
        "estimated_diameter_max" : 748.2383760735
      },
      "miles" : {
        "estimated_diameter_min" : 0.2079246394,
        "estimated_diameter_max" : 0.464933628
      },
      "feet" : {
        "estimated_diameter_min" : 1097.8424710066,
        "estimated_diameter_max" : 2454.8503937571
      }
    },
    "is_potentially_hazardous_asteroid" : false,
    "close_approach_data" : [ {
      "close_approach_date" : "2113-12-23",
      "epoch_date_close_approach" : 4543459200000,
      "relative_velocity" : {
        "kilometers_per_second" : "7.6193570414",
        "kilometers_per_hour" : "27429.6853489005",
        "miles_per_hour" : "17043.739765821"
      },
      "miss_distance" : {
        "astronomical" : "0.0203520996",
        "lunar" : "7.9169664383",
        "kilometers" : "3044630.75",
        "miles" : "1891845.875"
      },
      "orbiting_body" : "Mars"
    }, {
      "close_approach_date" : "2159-11-17",
      "epoch_date_close_approach" : 5991955200000,
      "relative_velocity" : {
        "kilometers_per_second" : "9.0814073119",
        "kilometers_per_hour" : "32693.0663229774",
        "miles_per_hour" : "20314.2000160745"
      },
      "miss_distance" : {
        "astronomical" : "0.0940007746",
        "lunar" : "36.5662994385",
        "kilometers" : "14062315",
        "miles" : "8737918"
      },
      "orbiting_body" : "Mars"
    } ],
    "orbital_data" : {
      "orbit_id" : "39",
      "orbit_determination_date" : "2017-04-06 09:20:54",
      "orbit_uncertainty" : "0",
      "minimum_orbit_intersection" : ".156372",
      "jupiter_tisserand_invariant" : "3.826",
      "epoch_osculation" : "2458000.5",
      "eccentricity" : ".3899960612074325",
      "semi_major_axis" : "1.922324647969829",
      "inclination" : ".3191740553337366",
      "ascending_node_longitude" : "183.0177670172889",
      "orbital_period" : "973.5057669889867",
      "perihelion_distance" : "1.172625606899632",
      "perihelion_argument" : "107.3623666414743",
      "aphelion_distance" : "2.672023689040027",
      "perihelion_time" : "2458237.091243562142",
      "mean_anomaly" : "272.5091493337454",
      "mean_motion" : ".3697975011626949",
      "equinox" : "J2000"
    }
  }, {
    "links" : {
      "self" : "https://api.nasa.gov/neo/rest/v1/neo/2435730?api_key=DEMO_KEY"
    },
    "neo_reference_id" : "2435730",
    "name" : "435730 (2008 UK90)",
    "nasa_jpl_url" : "http://ssd.jpl.nasa.gov/sbdb.cgi?sstr=2435730",
    "absolute_magnitude_h" : 18.9,
    "estimated_diameter" : {
      "kilometers" : {
        "estimated_diameter_min" : 0.4411182,
        "estimated_diameter_max" : 0.9863702813
      },
      "meters" : {
        "estimated_diameter_min" : 441.1181999969,
        "estimated_diameter_max" : 986.3702813054
      },
      "miles" : {
        "estimated_diameter_min" : 0.2740980571,
        "estimated_diameter_max" : 0.6129018881
      },
      "feet" : {
        "estimated_diameter_min" : 1447.2382352778,
        "estimated_diameter_max" : 3236.1230737181
      }
    },
    "is_potentially_hazardous_asteroid" : false,
    "close_approach_data" : [ ],
    "orbital_data" : {
      "orbit_id" : "21",
      "orbit_determination_date" : "2017-04-12 06:15:44",
      "orbit_uncertainty" : "1",
      "minimum_orbit_intersection" : ".563372",
      "jupiter_tisserand_invariant" : "3.545",
      "epoch_osculation" : "2458000.5",
      "eccentricity" : ".3709454771832371",
      "semi_major_axis" : "2.003811325212398",
      "inclination" : "34.65565428966807",
      "ascending_node_longitude" : "48.82587683086223",
      "orbital_period" : "1036.057042449061",
      "perihelion_distance" : "1.26050657699631",
      "perihelion_argument" : "91.41726893886667",
      "aphelion_distance" : "2.747116073428486",
      "perihelion_time" : "2458043.469593397698",
      "mean_anomaly" : "345.0693031470498",
      "mean_motion" : ".3474712156282649",
      "equinox" : "J2000"
    }
  }, {
    "links" : {
      "self" : "https://api.nasa.gov/neo/rest/v1/neo/2451297?api_key=DEMO_KEY"
    },
    "neo_reference_id" : "2451297",
    "name" : "451297 (2010 TK54)",
    "nasa_jpl_url" : "http://ssd.jpl.nasa.gov/sbdb.cgi?sstr=2451297",
    "absolute_magnitude_h" : 19.2,
    "estimated_diameter" : {
      "kilometers" : {
        "estimated_diameter_min" : 0.3841978911,
        "estimated_diameter_max" : 0.8590926012
      },
      "meters" : {
        "estimated_diameter_min" : 384.1978910643,
        "estimated_diameter_max" : 859.0926012318
      },
      "miles" : {
        "estimated_diameter_min" : 0.2387294278,
        "estimated_diameter_max" : 0.5338152287
      },
      "feet" : {
        "estimated_diameter_min" : 1260.4918089193,
        "estimated_diameter_max" : 2818.5453698252
      }
    },
    "is_potentially_hazardous_asteroid" : true,
    "close_approach_data" : [ ],
    "orbital_data" : {
      "orbit_id" : "24",
      "orbit_determination_date" : "2017-04-06 09:20:08",
      "orbit_uncertainty" : "1",
      "minimum_orbit_intersection" : ".0148586",
      "jupiter_tisserand_invariant" : "3.715",
      "epoch_osculation" : "2458000.5",
      "eccentricity" : ".49508511701562",
      "semi_major_axis" : "1.840359699986773",
      "inclination" : "30.80651813587574",
      "ascending_node_longitude" : "28.18472508036083",
      "orbital_period" : "911.9110929287807",
      "perihelion_distance" : ".9292250025679901",
      "perihelion_argument" : "222.9210484296119",
      "aphelion_distance" : "2.751494397405555",
      "perihelion_time" : "2457975.688270555248",
      "mean_anomaly" : "9.79505860754807",
      "mean_motion" : ".3947753271032043",
      "equinox" : "J2000"
    }
  }, {
    "links" : {
      "self" : "https://api.nasa.gov/neo/rest/v1/neo/2452307?api_key=DEMO_KEY"
    },
    "neo_reference_id" : "2452307",
    "name" : "452307 Manawydan (1997 XV11)",
    "nasa_jpl_url" : "http://ssd.jpl.nasa.gov/sbdb.cgi?sstr=2452307",
    "absolute_magnitude_h" : 18.3,
    "estimated_diameter" : {
      "kilometers" : {
        "estimated_diameter_min" : 0.5815070396,
        "estimated_diameter_max" : 1.30028927
      },
      "meters" : {
        "estimated_diameter_min" : 581.5070396458,
        "estimated_diameter_max" : 1300.2892700427
      },
      "miles" : {
        "estimated_diameter_min" : 0.3613316107,
        "estimated_diameter_max" : 0.807962044
      },
      "feet" : {
        "estimated_diameter_min" : 1907.8315559515,
        "estimated_diameter_max" : 4266.0410487267
      }
    },
    "is_potentially_hazardous_asteroid" : false,
    "close_approach_data" : [ ],
    "orbital_data" : {
      "orbit_id" : "42",
      "orbit_determination_date" : "2017-04-06 09:20:07",
      "orbit_uncertainty" : "0",
      "minimum_orbit_intersection" : ".584394",
      "jupiter_tisserand_invariant" : "3.600",
      "epoch_osculation" : "2458000.5",
      "eccentricity" : ".3177759552910391",
      "semi_major_axis" : "1.867173549488825",
      "inclination" : "44.26721036361658",
      "ascending_node_longitude" : "241.2568788853779",
      "orbital_period" : "931.9131856580047",
      "perihelion_distance" : "1.273830691105854",
      "perihelion_argument" : "270.1825323453298",
      "aphelion_distance" : "2.460516407871797",
      "perihelion_time" : "2458381.625877025984",
      "mean_anomaly" : "212.7702817806183",
      "mean_motion" : ".3863020778548287",
      "equinox" : "J2000"
    }
  } ]
}